ONEWEB-0012             
1 44057U 19010A   26165.59328363 -.00000079  00000+0 -24090-3 0  9995
2 44057  87.9097 229.3007 0002024  85.8924 274.2438 13.16594842351225
ONEWEB-0010             
1 44058U 19010B   26165.61861495  .00000085  00000+0  18802-3 0  9996
2 44058  87.9098 229.2910 0001821 106.6379 253.4952 13.16594350351278
ONEWEB-0008             
1 44059U 19010C   26165.64394543 -.00000006  00000+0 -48546-4 0  9999
2 44059  87.9098 229.2816 0002319  98.9787 261.1606 13.16595717351396
ONEWEB-0007             
1 44060U 19010D   26165.52492500 -.00000251  00000+0 -70169-3 0  9997
2 44060  87.9000 259.7517 0001667  97.9989 262.1331 13.15547657351020
ONEWEB-0006             
1 44061U 19010E   26165.75704618 -.00000121  00000+0 -35562-3 0  9993
2 44061  87.9011 259.6694 0001852 103.3678 256.7658 13.15548700351101
ONEWEB-0011             
1 44062U 19010F   26165.64929676  .00000077  00000+0  17179-3 0  9997
2 44062  87.9015 259.7002 0002048 105.5530 254.5827 13.15547299351082
ONEWEB-0013             
1 45131U 20008A   26165.64848281 -.00000436  00000+0 -13035-2 0  9993
2 45131  87.8526  53.3378 0002352  56.1629 303.9721 13.09460805305731
ONEWEB-0017             
1 45132U 20008B   26165.63264775  .00000716  00000+0  20148-2 0  9995
2 45132  87.8834  36.7777 0001665  87.4913 272.6405 13.10372547307618
ONEWEB-0020             
1 45133U 20008C   26162.09052118 -.00025249  00000+0 -72765-1 0  9990
2 45133  87.8849  37.4818 0002539  39.3679 320.7632 13.10181111307549
ONEWEB-0021             
1 45134U 20008D   26165.61770080  .00000307  00000+0  84272-3 0  9991
2 45134  87.8836  36.7952 0001741  79.1894 280.9430 13.10375993308314
ONEWEB-0023             
1 45136U 20008F   26165.62850047  .00000679  00000+0  19079-2 0  9990
2 45136  87.8840  36.7748 0001930  79.4478 280.6867 13.10373506307740
ONEWEB-0024             
1 45137U 20008G   26165.60122809 -.00000439  00000+0 -12928-2 0  9999
2 45137  87.8847  36.7730 0001774  83.4537 276.6793 13.10374882307905
ONEWEB-0025             
1 45138U 20008H   26165.60095219 -.00000454  00000+0 -13364-2 0  9996
2 45138  87.8852  36.7628 0002216  91.8623 268.2759 13.10375057308230
ONEWEB-0026             
1 45139U 20008J   26165.64075605 -.00000421  00000+0 -12230-2 0  9993
2 45139  87.8888  21.5754 0001794  89.7737 270.3596 13.11418291310778
ONEWEB-0028             
1 45140U 20008K   26165.84505581 -.00000655  00000+0 -18850-2 0  9991
2 45140  87.8885  21.5430 0002007  68.5877 291.5464 13.11415731308318
ONEWEB-0032             
1 45141U 20008L   26165.63444666  .00000708  00000+0  19920-2 0  9991
2 45141  87.8836  36.7788 0002055  70.3863 289.7486 13.10372001307962
ONEWEB-0033             
1 45142U 20008M   26165.60939503 -.00000097  00000+0 -31540-3 0  9994
2 45142  87.8835  36.7914 0001575  97.5977 262.5329 13.10376058307877
ONEWEB-0035             
1 45143U 20008N   26165.62947302  .00000656  00000+0  18429-2 0  9992
2 45143  87.8833  36.7800 0001739  84.3146 275.8179 13.10374248307604
ONEWEB-0036             
1 45144U 20008P   26165.60381169 -.00000384  00000+0 -11417-2 0  9994
2 45144  87.8852  36.7967 0001966  77.5009 282.6338 13.09984490308028
ONEWEB-0038             
1 45145U 20008Q   26165.87996905  .00000164  00000+0  42743-3 0  9995
2 45145  87.8904  21.5362 0000573  13.7915 346.3228 13.11418991310029
ONEWEB-0039             
1 45146U 20008R   26165.61272375  .00000099  00000+0  24624-3 0  9991
2 45146  87.8837  36.7810 0001977  67.1726 292.9610 13.10375956307820
ONEWEB-0040             
1 45147U 20008S   26165.60607275 -.00000234  00000+0 -70621-3 0  9993
2 45147  87.8836  36.7933 0001697  79.3678 280.7641 13.10375850307525
ONEWEB-0043             
1 45149U 20008U   26165.60773638 -.00000169  00000+0 -52109-3 0  9990
2 45149  87.8842  36.7803 0002062  67.1122 293.0223 13.10375839307841
ONEWEB-0044             
1 45150U 20008V   26165.63596884  .00000686  00000+0  19280-2 0  9995
2 45150  87.8843  36.7748 0001781  76.0283 284.1043 13.10371340308144
ONEWEB-0045             
1 45151U 20008W   26165.87474119  .00000003  00000+0 -25937-4 0  9990
2 45151  87.8899  21.5198 0001775  80.6778 279.4550 13.11419771310101
ONEWEB-0047             
1 45152U 20008X   26165.62919194  .00000743  00000+0  20921-2 0  9997
2 45152  87.8841  36.7758 0001601  83.9245 276.2065 13.10374569307861
ONEWEB-0048             
1 45153U 20008Y   26165.62434619  .00000647  00000+0  18170-2 0  9998
2 45153  87.8835  36.7981 0001740  82.1300 278.0024 13.10375177307478
ONEWEB-0049             
1 45154U 20008Z   26165.62753654  .00000646  00000+0  18129-2 0  9995
2 45154  87.8834  36.7870 0002242  82.2291 277.9090 13.10373466307697
ONEWEB-0051             
1 45155U 20008AA  26165.87305384 -.00000058  00000+0 -20031-3 0  9991
2 45155  87.8891  21.5280 0001831  84.1509 275.9828 13.11419742310784
ONEWEB-0052             
1 45156U 20008AB  26165.87679346  .00000236  00000+0  64117-3 0  9993
2 45156  87.8834  36.7229 0002250  81.4713 278.6669 13.10369647307636
ONEWEB-0053             
1 45157U 20008AC  26165.60441395 -.00000305  00000+0 -91017-3 0  9994
2 45157  87.8836  36.7991 0002158  72.0890 288.0473 13.10375675307573
