OBJECT_NAME,OBJECT_ID,EPOCH,MEAN_MOTION,ECCENTRICITY,INCLINATION,RA_OF_ASC_NODE,ARG_OF_PERICENTER,MEAN_ANOMALY,EPHEMERIS_TYPE,CLASSIFICATION_TYPE,NORAD_CAT_ID,ELEMENT_SET_NO,REV_AT_EPOCH,BSTAR,MEAN_MOTION_DOT,MEAN_MOTION_DDOT
ONEWEB-0012,2019-010A,2026-06-14T14:14:19.705632,13.16594842,.0002024,87.9097,229.3007,85.8924,274.2438,0,U,44057,999,35122,-.2409E-3,-.79E-6,0
ONEWEB-0010,2019-010B,2026-06-14T14:50:48.331680,13.16594350,.0001821,87.9098,229.2910,106.6379,253.4952,0,U,44058,999,35127,.18802E-3,.85E-6,0
ONEWEB-0008,2019-010C,2026-06-14T15:27:16.885152,13.16595717,.0002319,87.9098,229.2816,98.9787,261.1606,0,U,44059,999,35139,-.48546E-4,-.6E-7,0
ONEWEB-0007,2019-010D,2026-06-14T12:35:53.520000,13.15547657,.00016677,87.9000,259.7517,97.9989,262.1331,0,U,44060,999,35102,-.70168642E-3,-.251E-5,0
ONEWEB-0006,2019-010E,2026-06-14T18:10:08.789952,13.15548700,.0001852,87.9011,259.6694,103.3678,256.7658,0,U,44061,999,35110,-.35562E-3,-.121E-5,0
ONEWEB-0011,2019-010F,2026-06-14T15:34:59.240064,13.15547299,.0002048,87.9015,259.7002,105.5530,254.5827,0,U,44062,999,35108,.17179E-3,.77E-6,0
ONEWEB-0013,2020-008A,2026-06-14T15:33:48.914784,13.09460805,.0002352,87.8526,53.3378,56.1629,303.9721,0,U,45131,999,30573,-.13035E-2,-.436E-5,0
ONEWEB-0017,2020-008B,2026-06-14T15:11:00.765600,13.10372547,.0001665,87.8834,36.7777,87.4913,272.6405,0,U,45132,999,30761,.20148E-2,.716E-5,0
ONEWEB-0020,2020-008C,2026-06-11T02:10:21.029952,13.10181111,.00025391,87.8849,37.4818,39.3679,320.7632,0,U,45133,999,30754,-.7276454E-1,-.25249E-3,0
ONEWEB-0021,2020-008D,2026-06-14T14:49:29.349120,13.10375993,.0001741,87.8836,36.7952,79.1894,280.9430,0,U,45134,999,30831,.84272E-3,.307E-5,0
ONEWEB-0023,2020-008F,2026-06-14T15:05:02.440608,13.10373506,.000193,87.8840,36.7748,79.4478,280.6867,0,U,45136,999,30774,.19079E-2,.679E-5,0
ONEWEB-0024,2020-008G,2026-06-14T14:25:46.106976,13.10374882,.0001774,87.8847,36.7730,83.4537,276.6793,0,U,45137,999,30790,-.12928E-2,-.439E-5,0
ONEWEB-0025,2020-008H,2026-06-14T14:25:22.269216,13.10375057,.0002216,87.8852,36.7628,91.8623,268.2759,0,U,45138,999,30823,-.13364E-2,-.454E-5,0
ONEWEB-0026,2020-008J,2026-06-14T15:22:41.322720,13.11418291,.0001794,87.8888,21.5754,89.7737,270.3596,0,U,45139,999,31077,-.1223E-2,-.421E-5,0
ONEWEB-0028,2020-008K,2026-06-14T20:16:52.821984,13.11415731,.0002007,87.8885,21.5430,68.5877,291.5464,0,U,45140,999,30831,-.1885E-2,-.655E-5,0
ONEWEB-0032,2020-008L,2026-06-14T15:13:36.191424,13.10372001,.0002055,87.8836,36.7788,70.3863,289.7486,0,U,45141,999,30796,.1992E-2,.708E-5,0
ONEWEB-0033,2020-008M,2026-06-14T14:37:31.730592,13.10376058,.0001575,87.8835,36.7914,97.5977,262.5329,0,U,45142,999,30787,-.3154E-3,-.97E-6,0
ONEWEB-0035,2020-008N,2026-06-14T15:06:26.468928,13.10374248,.0001739,87.8833,36.7800,84.3146,275.8179,0,U,45143,999,30760,.18429E-2,.656E-5,0
ONEWEB-0036,2020-008P,2026-06-14T14:29:29.330016,13.09984490,.0001966,87.8852,36.7967,77.5009,282.6338,0,U,45144,999,30802,-.11417E-2,-.384E-5,0
ONEWEB-0038,2020-008Q,2026-06-14T21:07:09.325920,13.11418991,.0000573,87.8904,21.5362,13.7915,346.3228,0,U,45145,999,31002,.42743E-3,.164E-5,0
ONEWEB-0039,2020-008R,2026-06-14T14:42:19.332000,13.10375956,.0001977,87.8837,36.7810,67.1726,292.9610,0,U,45146,999,30782,.24624E-3,.99E-6,0
ONEWEB-0040,2020-008S,2026-06-14T14:32:44.685600,13.10375850,.0001697,87.8836,36.7933,79.3678,280.7641,0,U,45147,999,30752,-.70621E-3,-.234E-5,0
ONEWEB-0043,2020-008U,2026-06-14T14:35:08.423232,13.10375839,.0002062,87.8842,36.7803,67.1122,293.0223,0,U,45149,999,30784,-.52109E-3,-.169E-5,0
ONEWEB-0044,2020-008V,2026-06-14T15:15:47.707776,13.10371340,.0001781,87.8843,36.7748,76.0283,284.1043,0,U,45150,999,30814,.1928E-2,.686E-5,0
ONEWEB-0045,2020-008W,2026-06-14T20:59:37.638816,13.11419771,.0001775,87.8899,21.5198,80.6778,279.4550,0,U,45151,999,31010,-.25937E-4,.3E-7,0
ONEWEB-0047,2020-008X,2026-06-14T15:06:02.183616,13.10374569,.0001601,87.8841,36.7758,83.9245,276.2065,0,U,45152,999,30786,.20921E-2,.743E-5,0
ONEWEB-0048,2020-008Y,2026-06-14T14:59:03.510816,13.10375177,.000174,87.8835,36.7981,82.1300,278.0024,0,U,45153,999,30747,.1817E-2,.647E-5,0
ONEWEB-0049,2020-008Z,2026-06-14T15:03:39.157056,13.10373466,.0002242,87.8834,36.7870,82.2291,277.9090,0,U,45154,999,30769,.18129E-2,.646E-5,0
ONEWEB-0051,2020-008AA,2026-06-14T20:57:11.851776,13.11419742,.0001831,87.8891,21.5280,84.1509,275.9828,0,U,45155,999,31078,-.20031E-3,-.58E-6,0
ONEWEB-0052,2020-008AB,2026-06-14T21:02:34.954944,13.10369647,.000225,87.8834,36.7229,81.4713,278.6669,0,U,45156,999,30763,.64117E-3,.236E-5,0
ONEWEB-0053,2020-008AC,2026-06-14T14:30:21.365280,13.10375675,.0002158,87.8836,36.7991,72.0890,288.0473,0,U,45157,999,30757,-.91017E-3,-.305E-5,0
